KUIPER-00268            
1 67790U 26030AC  26052.91668981 -.00001522  00000+0 -32711-4 0  9992
2 67790  51.8847 295.1593 0001777  22.4697 191.4112 15.35344138  1300
KUIPER-00270            
1 67791U 26030AD  26052.91668981 -.00004457  00000+0 -12214-3 0  9998
2 67791  51.8808 295.2522 0009849  10.3104 156.0740 15.33945142  1380
KUIPER-00274            
1 67792U 26030AE  26052.91668981 -.00006092  00000+0 -17985-3 0  9996
2 67792  51.8822 295.3536 0017185  20.0712  98.1216 15.32286817  1658
KUIPER-00275            
1 67793U 26030AF  26052.91668981 -.00003752  00000+0 -10018-3 0  9997
2 67793  51.8841 295.2398 0008050   8.9637 165.9358 15.34219374  1305
KUIPER-00276            
1 67794U 26030AG  26052.91668981 -.00006561  00000+0 -19784-3 0  9998
2 67794  51.8817 295.3688 0018780  18.0456  92.2170 15.31739543  2378
KUIPER-00279            
1 67795U 26030AH  26052.91668981 -.00002783  00000+0 -70413-4 0  9998
2 67795  51.8799 295.2064 0005964   6.4981 182.0226 15.34645936  1306
CREW DRAGON 12          
1 67796U 26031A   26052.76529869  .00010666  00000+0  20704-3 0  9998
2 67796  51.6320 151.0701 0008511 119.8639 240.3195 15.48189327553837
